[{"OBJECT_NAME":"STARLINK-34347","OBJECT_ID":"2025-117Z","EPOCH":"2026-03-09T07:05:43.510272","MEAN_MOTION":15.30199182,"ECCENTRICITY":0.00011843,"INCLINATION":53.1608,"RA_OF_ASC_NODE":41.5509,"ARG_OF_PERICENTER":103.8437,"MEAN_ANOMALY":256.2696,"EPHEMERIS_TYPE":0,"CLASSIFICATION_TYPE":"U","NORAD_CAT_ID":64226,"ELEMENT_SET_NO":999,"REV_AT_EPOCH":4446,"BSTAR":0.00088939863,"MEAN_MOTION_DOT":0.00026074,"MEAN_MOTION_DDOT":0},{"OBJECT_NAME":"GEOSCAN 1 (RS92S1)","OBJECT_ID":"2025-155E","EPOCH":"2026-03-09T22:44:05.846496","MEAN_MOTION":15.28410635,"ECCENTRICITY":0.00087099,"INCLINATION":97.4463,"RA_OF_ASC_NODE":37.403,"ARG_OF_PERICENTER":153.6429,"MEAN_ANOMALY":206.5255,"EPHEMERIS_TYPE":0,"CLASSIFICATION_TYPE":"U","NORAD_CAT_ID":64880,"ELEMENT_SET_NO":999,"REV_AT_EPOCH":6560,"BSTAR":0.00054367431,"MEAN_MOTION_DOT":0.00014993,"MEAN_MOTION_DDOT":0}]
